norad_id,name,regime,epoch,line1,line2,inclination,eccentricity,mean_motion,raan,arg_pericenter,mean_anomaly
19789,COSMOS 1998,LEO,21329.71069823,1 19789U 89009E   21329.71069823  .00000024  00000-0  71406-4 0    15\,2 19789  82.6088 313.9267 0017328 111.5044 248.7898 12.64871225513582,82.6088,0.0017328,12.64871225,313.9267,111.5044,248.7898
19789,COSMOS 1998,LEO,21330.34349074,1 19789U 89009E   21330.34349074  .00000025  00000-0  74667-4 0    18\,2 19789  82.6088 313.5225 0017333 110.1562 250.1397 12.64871195513664,82.6088,0.0017333,12.64871195,313.5225,110.1562,250.1397
19789,COSMOS 1998,LEO,21330.65988693,1 19789U 89009E   21330.65988693  .00000028  00000-0  91272-4 0    12\,2 19789  82.6089 313.3205 0017334 109.4549 250.8418 12.64871221513704,82.6089,0.0017334,12.64871221,313.3205,109.4549,250.8418
19789,COSMOS 1998,LEO,21331.37177836,1 19789U 89009E   21331.37177836  .00000033  00000-0  12029-3 0    19\,2 19789  82.6090 312.8659 0017339 107.9119 252.3866 12.64871270513791,82.609,0.0017339,12.6487127,312.8659,107.9119,252.3866
19789,COSMOS 1998,LEO,21331.68817454,1 19789U 89009E   21331.68817454  .00000034  00000-0  12368-3 0    17\,2 19789  82.6090 312.6638 0017346 107.2314 253.0679 12.64871275513834,82.609,0.0017346,12.64871275,312.6638,107.2314,253.0679
19789,COSMOS 1998,LEO,21332.24186779,1 19789U 89009E   21332.24186779  .00000036  00000-0  13505-3 0    15\,2 19789  82.6090 312.3102 0017350 106.0530 254.2475 12.64871299513900,82.609,0.001735,12.64871299,312.3102,106.053,254.2475
19789,COSMOS 1998,LEO,21332.71646203,1 19789U 89009E   21332.71646203  .00000035  00000-0  13113-3 0  7314\,2 19789  82.6090 312.0071 0017358 105.0297 255.2718 12.64871299514147,82.609,0.0017358,12.64871299,312.0071,105.0297,255.2718
19789,COSMOS 1998,LEO,21332.87466013,1 19789U 89009E   21332.87466013  .00000033  00000-0  11912-3 0    13\,2 19789  82.6090 311.9060 0017362 104.6805 255.6213 12.64871293513987,82.609,0.0017362,12.64871293,311.906,104.6805,255.6213
19789,COSMOS 1998,LEO,21333.34925432,1 19789U 89009E   21333.34925432  .00000031  00000-0  11123-3 0    13\,2 19789  82.6090 311.6029 0017366 103.6614 256.6413 12.64871306514046,82.609,0.0017366,12.64871306,311.6029,103.6614,256.6413
19789,COSMOS 1998,LEO,21333.66565046,1 19789U 89009E   21333.66565046  .00000027  00000-0  85325-4 0    10\,2 19789  82.6091 311.4009 0017369 102.9846 257.3187 12.64871292514089,82.6091,0.0017369,12.64871292,311.4009,102.9846,257.3187
19789,COSMOS 1998,LEO,21334.21934364,1 19789U 89009E   21334.21934364  .00000024  00000-0  70074-4 0    17\,2 19789  82.6092 311.0473 0017375 101.7968 258.5075 12.64871299514154,82.6092,0.0017375,12.64871299,311.0473,101.7968,258.5075
19789,COSMOS 1998,LEO,21334.69393779,1 19789U 89009E   21334.69393779  .00000021  00000-0  57377-4 0    16\,2 19789  82.6092 310.7442 0017379 100.7787 259.5263 12.64871303514211,82.6092,0.0017379,12.64871303,310.7442,100.7787,259.5263
19789,COSMOS 1998,LEO,21335.32672997,1 19789U 89009E   21335.32672997  .00000015  00000-0  22119-4 0    18\,2 19789  82.6093 310.3401 0017386  99.4160 260.8899 12.64871291514294,82.6093,0.0017386,12.64871291,310.3401,99.416,260.8899
19789,COSMOS 1998,LEO,21335.88042309,1 19789U 89009E   21335.88042309  .00000009  00000-0 -12161-4 0    17\,2 19789  82.6093 309.9865 0017387  98.2133 262.0932 12.64871294514363,82.6093,0.0017387,12.64871294,309.9865,98.2133,262.0932
19789,COSMOS 1998,LEO,21336.43411620,1 19789U 89009E   21336.43411620  .00000006  00000-0 -25865-4 0    17\,2 19789  82.6093 309.6329 0017405  97.0061 263.3012 12.64871308514430,82.6093,0.0017405,12.64871308,309.6329,97.0061,263.3012
19789,COSMOS 1998,LEO,21336.90871030,1 19789U 89009E   21336.90871030  .00000002  00000-0 -47172-4 0    15\,2 19789  82.6093 309.3298 0017413  95.9866 264.3212 12.64871295514495,82.6093,0.0017413,12.64871295,309.3298,95.9866,264.3212
19789,COSMOS 1998,LEO,21337.38330434,1 19789U 89009E   21337.38330434  .00000003  00000-0 -40664-4 0    16\,2 19789  82.6093 309.0267 0017420  94.9688 265.3394 12.64871309514552,82.6093,0.001742,12.64871309,309.0267,94.9688,265.3394
19789,COSMOS 1998,LEO,21338.17429443,1 19789U 89009E   21338.17429443 -.00000003  00000-0 -76177-4 0    12\,2 19789  82.6093 308.5216 0017428  93.2685 267.0402 12.64871278514652,82.6093,0.0017428,12.64871278,308.5216,93.2685,267.0402
19789,COSMOS 1998,LEO,21338.88618551,1 19789U 89009E   21338.88618551 -.00000005  00000-0 -85760-4 0    10\,2 19789  82.6093 308.0670 0017437  91.7442 268.5648 12.64871277514742,82.6093,0.0017437,12.64871277,308.067,91.7442,268.5648
19789,COSMOS 1998,LEO,21339.43987852,1 19789U 89009E   21339.43987852  .00000000  00000-0 -60668-4 0    19\,2 19789  82.6094 307.7135 0017442  90.5528 269.7563 12.64871293514818,82.6094,0.0017442,12.64871293,307.7135,90.5528,269.7563
19789,COSMOS 1998,LEO,21339.91447252,1 19789U 89009E   21339.91447252  .00000007  00000-0 -18724-4 0    10\,2 19789  82.6095 307.4104 0017451  89.5263 270.7829 12.64871329514879,82.6095,0.0017451,12.64871329,307.4104,89.5263,270.7829
19789,COSMOS 1998,LEO,21340.38906655,1 19789U 89009E   21340.38906655  .00000008  00000-0 -15105-4 0    11\,2 19789  82.6095 307.1073 0017454  88.5034 271.8057 12.64871311514932,82.6095,0.0017454,12.64871311,307.1073,88.5034,271.8057
19789,COSMOS 1998,LEO,21340.94275954,1 19789U 89009E   21340.94275954  .00000010  00000-0 -40845-5 0    17\,2 19789  82.6095 306.7538 0017459  87.3099 272.9991 12.64871324515008,82.6095,0.0017459,12.64871324,306.7538,87.3099,272.9991
19789,COSMOS 1998,LEO,21341.41735352,1 19789U 89009E   21341.41735352  .00000016  00000-0  25271-4 0    13\,2 19789  82.6096 306.4507 0017461  86.2873 274.0216 12.64871333515062,82.6096,0.0017461,12.64871333,306.4507,86.2873,274.0216
19789,COSMOS 1998,LEO,21341.65465052,1 19789U 89009E   21341.65465052  .00000016  00000-0  28959-4 0    12\,2 19789  82.6096 306.2992 0017463  85.7856 274.5232 12.64871316515092,82.6096,0.0017463,12.64871316,306.2992,85.7856,274.5232
19789,COSMOS 1998,LEO,21342.36654146,1 19789U 89009E   21342.36654146  .00000020  00000-0  48667-4 0    18\,2 19789  82.6097 305.8446 0017463  84.2537 276.0546 12.64871310515181,82.6097,0.0017463,12.6487131,305.8446,84.2537,276.0546
19789,COSMOS 1998,LEO,21342.92023429,1 19789U 89009E   21342.92023429  .00000024  00000-0  69926-4 0    19\,2 19789  82.6097 305.4910 0017452  83.0825 277.2253 12.64871346515253,82.6097,0.0017452,12.64871346,305.491,83.0825,277.2253
19789,COSMOS 1998,LEO,21343.86942206,1 19789U 89009E   21343.86942206  .00000032  00000-0  11617-3 0    18\,2 19789  82.6099 304.8849 0017451  81.0499 279.2568 12.64871394515370,82.6099,0.0017451,12.64871394,304.8849,81.0499,279.2568
19789,COSMOS 1998,LEO,21344.34401592,1 19789U 89009E   21344.34401592  .00000036  00000-0  13441-3 0    11\,2 19789  82.6100 304.5819 0017448  80.0304 280.2757 12.64871403515437,82.61,0.0017448,12.64871403,304.5819,80.0304,280.2757
19789,COSMOS 1998,LEO,21344.58131283,1 19789U 89009E   21344.58131283  .00000036  00000-0  13514-3 0    15\,2 19789  82.6100 304.4303 0017450  79.5198 280.7859 12.64871404515463,82.61,0.001745,12.64871404,304.4303,79.5198,280.7859
19789,COSMOS 1998,LEO,21345.37230256,1 19789U 89009E   21345.37230256  .00000031  00000-0  11091-3 0    16\,2 19789  82.6101 303.9253 0017448  77.8202 282.4844 12.64871402515568,82.6101,0.0017448,12.64871402,303.9253,77.8202,282.4844
19789,COSMOS 1998,LEO,21345.60959944,1 19789U 89009E   21345.60959944  .00000030  00000-0  10410-3 0    17\,2 19789  82.6101 303.7738 0017446  77.3177 282.9864 12.64871404515590,82.6101,0.0017446,12.64871404,303.7738,77.3177,282.9864
19789,COSMOS 1998,LEO,21346.40058905,1 19789U 89009E   21346.40058905  .00000027  00000-0  89479-4 0    11\,2 19789  82.6102 303.2688 0017442  75.6187 284.6840 12.64871431515692,82.6102,0.0017442,12.64871431,303.2688,75.6187,284.684
19789,COSMOS 1998,LEO,21346.95428172,1 19789U 89009E   21346.95428172  .00000024  00000-0  70120-4 0    18\,2 19789  82.6102 302.9153 0017440  74.4314 285.8702 12.64871440515760,82.6102,0.001744,12.6487144,302.9153,74.4314,285.8702
19789,COSMOS 1998,LEO,21347.34977648,1 19789U 89009E   21347.34977648  .00000019  00000-0  45415-4 0    12\,2 19789  82.6102 302.6628 0017428  73.5830 286.7176 12.64871426515818,82.6102,0.0017428,12.64871426,302.6628,73.583,286.7176
19789,COSMOS 1998,LEO,21347.90346911,1 19789U 89009E   21347.90346911  .00000013  00000-0  95209-5 0    18\,2 19789  82.6103 302.3092 0017426  72.3912 287.9082 12.64871432515880,82.6103,0.0017426,12.64871432,302.3092,72.3912,287.9082
19789,COSMOS 1998,LEO,21348.37806280,1 19789U 89009E   21348.37806280  .00000011  00000-0  29864-5 0    12\,2 19789  82.6103 302.0062 0017425  71.3722 288.9262 12.64871444515942,82.6103,0.0017425,12.64871444,302.0062,71.3722,288.9262
19789,COSMOS 1998,LEO,21348.85265650,1 19789U 89009E   21348.85265650  .00000008  00000-0 -17960-4 0  7382\,2 19789  82.6103 301.7032 0017427  70.3518 289.9453 12.64871436516180,82.6103,0.0017427,12.64871436,301.7032,70.3518,289.9453
19789,COSMOS 1998,LEO,21348.93175544,1 19789U 89009E   21348.93175544  .00000006  00000-0 -26281-4 0    10\,2 19789  82.6104 301.6528 0017422  70.1669 290.1300 12.64871430516011,82.6104,0.0017422,12.6487143,301.6528,70.1669,290.13
19789,COSMOS 1998,LEO,21349.32725016,1 19789U 89009E   21349.32725016  .00000006  00000-0 -25140-4 0    12\,2 19789  82.6104 301.4003 0017419  69.3136 290.9822 12.64871429516062,82.6104,0.0017419,12.64871429,301.4003,69.3136,290.9822
19789,COSMOS 1998,LEO,21349.96004168,1 19789U 89009E   21349.96004168  .00000000  00000-0 -60569-4 0    18\,2 19789  82.6105 300.9963 0017417  67.9572 292.3368 12.64871415516143,82.6105,0.0017417,12.64871415,300.9963,67.9572,292.3368
19789,COSMOS 1998,LEO,21350.27643745,1 19789U 89009E   21350.27643745  .00000000  00000-0 -59260-4 0    10\,2 19789  82.6106 300.7943 0017413  67.2796 293.0135 12.64871413516189,82.6106,0.0017413,12.64871413,300.7943,67.2796,293.0135
